CCSDS_OMM_VERS,COMMENT,CREATION_DATE,ORIGINATOR,OBJECT_NAME,OBJECT_ID,CENTER_NAME,REF_FRAME,TIME_SYSTEM,MEAN_ELEMENT_THEORY,EPOCH,MEAN_MOTION,ECCENTRICITY,INCLINATION,RA_OF_ASC_NODE,ARG_OF_PERICENTER,MEAN_ANOMALY,EPHEMERIS_TYPE,CLASSIFICATION_TYPE,NORAD_CAT_ID,ELEMENT_SET_NO,REV_AT_EPOCH,BSTAR,MEAN_MOTION_DOT,MEAN_MOTION_DDOT,SEMIMAJOR_AXIS,PERIOD,APOAPSIS,PERIAPSIS,OBJECT_TYPE,RCS_SIZE,COUNTRY_CODE,LAUNCH_DATE,SITE,DECAY_DATE,FILE,GP_ID,TLE_LINE0,TLE_LINE1,TLE_LINE2
2,GENERATED VIA SPACE-TRACK.ORG API,2015-12-03T19:24:39,18 SPCS,BREEZE-M R/B,2000-029B,EARTH,TEME,UTC,SGP4,2015-12-02T08:25:44.863680,1.00336208,0.0272136,10.959,37.0945,236.287,111.8784,0,U,26373,999,5679,0.0,6e-08,0,42146.681,1435.174,36915.509,34621.583,ROCKET BODY,LARGE,CIS,2000-06-06,TTMTR,,1961294,101968029,0 BREEZE-M R/B,1 26373U 00029B   15336.35121370 +.00000006 +00000-0 +00000-0 0  9998,2 26373 010.9590 037.0945 0272136 236.2870 111.8784 01.00336208056794
2,GENERATED VIA SPACE-TRACK.ORG API,2015-12-03T21:28:21,18 SPCS,BREEZE-M R/B,2000-029B,EARTH,TEME,UTC,SGP4,2015-12-03T09:25:54.099264,1.00336583,0.0272159,10.9604,37.084,236.3191,128.1615,0,U,26373,999,5680,0.0,1.1e-07,0,42146.576,1435.169,36915.498,34621.384,ROCKET BODY,LARGE,CIS,2000-06-06,TTMTR,,1961325,101971939,0 BREEZE-M R/B,1 26373U 00029B   15337.39298726  .00000011  00000-0  00000+0 0  9998,2 26373  10.9604  37.0840 0272159 236.3191 128.1615  1.00336583 56808
2,GENERATED VIA SPACE-TRACK.ORG API,2015-12-05T14:28:30,18 SPCS,BREEZE-M R/B,2000-029B,EARTH,TEME,UTC,SGP4,2015-12-05T11:51:38.503296,1.00337343,0.0272205,10.9631,37.063,236.3862,167.1085,0,U,26373,999,5682,0.0,2.5e-07,0,42146.363,1435.158,36915.473,34620.983,ROCKET BODY,LARGE,CIS,2000-06-06,TTMTR,,1962180,101998820,0 BREEZE-M R/B,1 26373U 00029B   15339.49419564  .00000025  00000-0  00000+0 0  9991,2 26373  10.9631  37.0630 0272205 236.3862 167.1085  1.00337343 56823
2,GENERATED VIA SPACE-TRACK.ORG API,2015-12-07T16:33:54,18 SPCS,BREEZE-M R/B,2000-029B,EARTH,TEME,UTC,SGP4,2015-12-06T07:04:47.433216,1.00337654,0.0272215,10.9642,37.0549,236.4101,96.357,0,U,26373,999,5683,0.0,3e-07,0,42146.276,1435.154,36915.426,34620.856,ROCKET BODY,LARGE,CIS,2000-06-06,TTMTR,,1963188,102041420,0 BREEZE-M R/B,1 26373U 00029B   15340.29499344 +.00000030 +00000-0 +00000-0 0  9992,2 26373 010.9642 037.0549 0272215 236.4101 096.3570 01.00337654056830
2,GENERATED VIA SPACE-TRACK.ORG API,2015-12-08T06:22:07,18 SPCS,BREEZE-M R/B,2000-029B,EARTH,TEME,UTC,SGP4,2015-12-07T19:26:53.345760,1.00338227,0.0272247,10.9661,37.0398,236.465,283.6921,0,U,26373,999,5684,0.0,4.1e-07,0,42146.116,1435.145,36915.396,34620.565,ROCKET BODY,LARGE,CIS,2000-06-06,TTMTR,,1963378,102050047,0 BREEZE-M R/B,1 26373U 00029B   15341.81033965  .00000041  00000-0  00000+0 0  9995,2 26373  10.9661  37.0398 0272247 236.4650 283.6921  1.00338227 56846
2,GENERATED VIA SPACE-TRACK.ORG API,2015-12-08T16:22:47,18 SPCS,BREEZE-M R/B,2000-029B,EARTH,TEME,UTC,SGP4,2015-12-07T19:26:53.345760,1.00338227,0.0272247,10.9661,37.0398,236.465,283.6921,0,U,26373,999,5685,0.0,4.1e-07,0,42146.116,1435.145,36915.396,34620.565,ROCKET BODY,LARGE,CIS,2000-06-06,TTMTR,,1963653,102060844,0 BREEZE-M R/B,1 26373U 00029B   15341.81033965 +.00000041 +00000-0 +00000-0 0  9996,2 26373 010.9661 037.0398 0272247 236.4650 283.6921 01.00338227056857
2,GENERATED VIA SPACE-TRACK.ORG API,2015-12-09T16:32:20,18 SPCS,BREEZE-M R/B,2000-029B,EARTH,TEME,UTC,SGP4,2015-12-08T13:48:16.488576,1.00338528,0.0272267,10.9671,37.0321,236.4887,199.9579,0,U,26373,999,5686,0.0,4.6e-07,0,42146.031,1435.141,36915.394,34620.399,ROCKET BODY,LARGE,CIS,2000-06-06,TTMTR,,1964082,102078823,0 BREEZE-M R/B,1 26373U 00029B   15342.57519084 +.00000046 +00000-0 +00000-0 0  9996,2 26373 010.9671 037.0321 0272267 236.4887 199.9579 01.00338528056861
2,GENERATED VIA SPACE-TRACK.ORG API,2015-12-10T16:30:46,18 SPCS,BREEZE-M R/B,2000-029B,EARTH,TEME,UTC,SGP4,2015-12-09T11:27:05.097312,1.00338887,0.0272279,10.9683,37.0231,236.5193,165.743,0,U,26373,999,5687,0.0,5.1e-07,0,42145.931,1435.136,36915.341,34620.251,ROCKET BODY,LARGE,CIS,2000-06-06,TTMTR,,1964529,102096909,0 BREEZE-M R/B,1 26373U 00029B   15343.47714233 +.00000051 +00000-0 +00000-0 0  9995,2 26373 010.9683 037.0231 0272279 236.5193 165.7430 01.00338887056874
2,GENERATED VIA SPACE-TRACK.ORG API,2015-12-10T12:50:08,18 SPCS,BREEZE-M R/B,2000-029B,EARTH,TEME,UTC,SGP4,2015-12-10T07:42:09.215136,1.00339228,0.0272285,10.9694,37.0146,236.549,110.5233,0,U,26373,999,5687,0.0,5.6e-07,0,42145.835,1435.131,36915.268,34620.132,ROCKET BODY,LARGE,CIS,2000-06-06,TTMTR,,1964431,102089925,0 BREEZE-M R/B,1 26373U 00029B   15344.32093999  .00000056  00000-0  00000+0 0  9993,2 26373  10.9694  37.0146 0272285 236.5490 110.5233  1.00339228 56877
2,GENERATED VIA SPACE-TRACK.ORG API,2015-12-12T14:23:11,18 SPCS,BREEZE-M R/B,2000-029B,EARTH,TEME,UTC,SGP4,2015-12-12T11:11:08.789280,1.00340061,0.0272296,10.9722,36.993,236.6237,165.3503,0,U,26373,999,5689,0.0,6.4e-07,0,42145.602,1435.119,36915.075,34619.859,ROCKET BODY,LARGE,CIS,2000-06-06,TTMTR,,1965375,102125882,0 BREEZE-M R/B,1 26373U 00029B   15346.46607395  .00000064  00000-0  00000+0 0  9990,2 26373  10.9722  36.9930 0272296 236.6237 165.3503  1.00340061 56897
2,GENERATED VIA SPACE-TRACK.ORG API,2015-12-13T16:36:51,18 SPCS,BREEZE-M R/B,2000-029B,EARTH,TEME,UTC,SGP4,2015-12-12T14:25:34.652928,1.00340103,0.0272303,10.9724,36.9916,236.6288,214.1197,0,U,26373,999,5690,0.0,6.4e-07,0,42145.59,1435.119,36915.092,34619.818,ROCKET BODY,LARGE,CIS,2000-06-06,TTMTR,,1965915,102151299,0 BREEZE-M R/B,1 26373U 00029B   15346.60109552 +.00000064 +00000-0 +00000-0 0  9999,2 26373 010.9724 036.9916 0272303 236.6288 214.1197 01.00340103056909
2,GENERATED VIA SPACE-TRACK.ORG API,2015-12-14T17:18:04,18 SPCS,BREEZE-M R/B,2000-029B,EARTH,TEME,UTC,SGP4,2015-12-13T11:09:17.371296,1.00340444,0.0272298,10.9735,36.983,236.6577,166.0895,0,U,26373,999,5691,0.0,6.6e-07,0,42145.495,1435.114,36914.973,34619.746,ROCKET BODY,LARGE,CIS,2000-06-06,TTMTR,,1966343,102169285,0 BREEZE-M R/B,1 26373U 00029B   15347.46478439 +.00000066 +00000-0 +00000-0 0  9999,2 26373 010.9735 036.9830 0272298 236.6577 166.0895 01.00340444056919
2,GENERATED VIA SPACE-TRACK.ORG API,2015-12-15T17:02:06,18 SPCS,BREEZE-M R/B,2000-029B,EARTH,TEME,UTC,SGP4,2015-12-14T07:14:26.913696,1.00340793,0.0272293,10.9746,36.9745,236.6873,108.3889,0,U,26373,999,5691,0.0,6.6e-07,0,42145.397,1435.109,36914.852,34619.672,ROCKET BODY,LARGE,CIS,2000-06-06,TTMTR,,1966833,102188890,0 BREEZE-M R/B,1 26373U 00029B   15348.30170039 +.00000066 +00000-0 +00000-0 0  9998,2 26373 010.9746 036.9745 0272293 236.6873 108.3889 01.00340793056919
2,GENERATED VIA SPACE-TRACK.ORG API,2015-12-15T14:40:24,18 SPCS,BREEZE-M R/B,2000-029B,EARTH,TEME,UTC,SGP4,2015-12-15T08:45:26.671392,1.00341227,0.0272285,10.9759,36.9638,236.7245,132.4221,0,U,26373,999,5692,0.0,6.6e-07,0,42145.276,1435.103,36914.693,34619.588,ROCKET BODY,LARGE,CIS,2000-06-06,TTMTR,,1966713,102180865,0 BREEZE-M R/B,1 26373U 00029B   15349.36489203  .00000066  00000-0  00000+0 0  9990,2 26373  10.9759  36.9638 0272285 236.7245 132.4221  1.00341227 56921
2,GENERATED VIA SPACE-TRACK.ORG API,2015-12-17T16:36:47,18 SPCS,BREEZE-M R/B,2000-029B,EARTH,TEME,UTC,SGP4,2015-12-16T11:48:18.163296,1.00341674,0.0272272,10.9774,36.9525,236.7631,179.4998,0,U,26373,999,5694,0.0,6.3e-07,0,42145.15,1435.096,36914.51,34619.521,ROCKET BODY,LARGE,CIS,2000-06-06,TTMTR,,1967707,102224912,0 BREEZE-M R/B,1 26373U 00029B   15350.49187689 +.00000063 +00000-0 +00000-0 0  9997,2 26373 010.9774 036.9525 0272272 236.7631 179.4998 01.00341674056948
2,GENERATED VIA SPACE-TRACK.ORG API,2015-12-18T16:39:35,18 SPCS,BREEZE-M R/B,2000-029B,EARTH,TEME,UTC,SGP4,2015-12-17T08:35:59.273088,1.00342032,0.0272258,10.9785,36.9438,236.793,132.471,0,U,26373,999,5695,0.0,6e-07,0,42145.05,1435.091,36914.348,34619.482,ROCKET BODY,LARGE,CIS,2000-06-06,TTMTR,,1968137,102242756,0 BREEZE-M R/B,1 26373U 00029B   15351.35832492 +.00000060 +00000-0 +00000-0 0  9999,2 26373 010.9785 036.9438 0272258 236.7930 132.4710 01.00342032056950
2,GENERATED VIA SPACE-TRACK.ORG API,2015-12-18T14:27:04,18 SPCS,BREEZE-M R/B,2000-029B,EARTH,TEME,UTC,SGP4,2015-12-18T08:28:25.641984,1.00342444,0.0272242,10.9797,36.9338,236.8267,131.7882,0,U,26373,999,5695,0.0,5.6e-07,0,42144.935,1435.085,36914.162,34619.438,ROCKET BODY,LARGE,CIS,2000-06-06,TTMTR,,1968019,102235147,0 BREEZE-M R/B,1 26373U 00029B   15352.35307456  .00000056  00000-0  00000+0 0  9991,2 26373  10.9797  36.9338 0272242 236.8267 131.7882  1.00342444 56958
2,GENERATED VIA SPACE-TRACK.ORG API,2015-12-20T16:11:21,18 SPCS,BREEZE-M R/B,2000-029B,EARTH,TEME,UTC,SGP4,2015-12-19T10:00:18.772416,1.00342863,0.027222,10.9811,36.9231,236.8596,156.0545,0,U,26373,999,5697,0.0,5e-07,0,42144.817,1435.079,36913.949,34619.416,ROCKET BODY,LARGE,CIS,2000-06-06,TTMTR,,1969007,102278803,0 BREEZE-M R/B,1 26373U 00029B   15353.41688394 +.00000050 +00000-0 +00000-0 0  9997,2 26373 010.9811 036.9231 0272220 236.8596 156.0545 01.00342863056971
2,GENERATED VIA SPACE-TRACK.ORG API,2015-12-21T06:27:16,18 SPCS,BREEZE-M R/B,2000-029B,EARTH,TEME,UTC,SGP4,2015-12-21T04:12:56.191104,1.00343579,0.0272191,10.9832,36.9053,236.9146,71.3557,0,U,26373,999,5698,0.0,4e-07,0,42144.617,1435.069,36913.621,34619.343,ROCKET BODY,LARGE,CIS,2000-06-06,TTMTR,,1969189,102286337,0 BREEZE-M R/B,1 26373U 00029B   15355.17565036  .00000040  00000-0  00000+0 0  9997,2 26373  10.9832  36.9053 0272191 236.9146  71.3557  1.00343579 56983
2,GENERATED VIA SPACE-TRACK.ORG API,2015-12-22T16:37:42,18 SPCS,BREEZE-M R/B,2000-029B,EARTH,TEME,UTC,SGP4,2015-12-21T08:32:06.767232,1.00343648,0.0272183,10.9835,36.9035,236.9195,136.3701,0,U,26373,999,5699,0.0,3.9e-07,0,42144.598,1435.068,36913.567,34619.358,ROCKET BODY,LARGE,CIS,2000-06-06,TTMTR,,1970032,102316510,0 BREEZE-M R/B,1 26373U 00029B   15355.35563388 +.00000039 +00000-0 +00000-0 0  9994,2 26373 010.9835 036.9035 0272183 236.9195 136.3701 01.00343648056992
